0 SL-16 R/B
1 25400U 98043G   13282.08455364  .00000009  00000-0  21420-4 0  4858
2 25400 098.3056 266.9905 0008629 286.7018 073.3215 14.25196806793178
0 SL-16 R/B
1 25400U 98043G   13283.48867257 -.00000002  00000-0  16690-4 0  4869
2 25400 098.3056 268.3201 0008632 281.9396 078.0817 14.25197257793376
0 SL-16 R/B
1 25400U 98043G   13286.08629157  .00000010  00000-0  21503-4 0  4882
2 25400 098.3057 270.7800 0008645 273.2091 086.8101 14.25197556793745
0 SL-16 R/B
1 25400U 98043G   13287.49041031 -.00000015  00000-0  11098-4 0  4892
2 25400 098.3059 272.1095 0008666 268.5038 091.5150 14.25197871793949
0 SL-16 R/B
1 25400U 98043G   13288.82432264 -.00000013  00000-0  11715-4 0  4908
2 25400 098.3062 273.3725 0008695 264.0463 095.9727 14.25198039794138
0 SL-16 R/B
1 25400U 98043G   13290.08802879  .00000007  00000-0  20422-4 0  4910
2 25400 098.3064 274.5690 0008720 259.8120 100.2077 14.25198052794318
0 SL-16 R/B
1 25400U 98043G   13291.49214707  .00000004  00000-0  18964-4 0  4929
2 25400 098.3067 275.8984 0008774 255.1006 104.9203 14.25198298794518
0 SL-16 R/B
1 25400U 98043G   13292.82605922  .00000011  00000-0  22177-4 0  4930
2 25400 098.3069 277.1615 0008820 250.7370 109.2857 14.25198375794703
0 SL-16 R/B
1 25400U 98043G   13294.08976543  .00000032  00000-0  30959-4 0  4941
2 25400 098.3071 278.3583 0008829 246.5445 113.4807 14.25198334794884
0 SL-16 R/B
1 25400U 98043G   13295.49388370  .00000024  00000-0  27556-4 0  4953
2 25400 098.3072 279.6881 0008921 242.0527 117.9751 14.25198521795083
